0 BREEZE-M DEB
1 38945U 12044CE  13282.48204127  .00760462  74277-4  78638-2 0  5732
2 38945 049.9616 096.1530 1000076 306.9315 044.3949 13.74073218 42679
0 BREEZE-M DEB
1 38945U 12044CE  13282.70022693  .00694102  62766-4  71682-2 0  5743
2 38945 049.9616 095.2895 0999011 307.6696 043.7572 13.74329670 42703
0 BREEZE-M DEB
1 38945U 12044CE  13283.49984594  .01221917  00000-0  13934-1 0  5764
2 38945 049.9604 092.1315 0986596 310.2715 041.5678 13.75480351 42819
0 BREEZE-M DEB
1 38945U 12044CE  13283.64516944  .00711105  00000-0  70878-2 0  5775
2 38945 049.9617 091.5319 0995196 310.8193 041.0489 13.75621163 42837
0 BREEZE-M DEB
1 38945U 12044CE  13283.79045525  .00766540  75767-4  78798-2 0  5759
2 38945 049.9607 090.9698 0992769 311.2646 040.6742 13.75767129 42852
0 BREEZE-M DEB
1 38945U 12044CE  13283.93573144  .00709534  65670-4  72888-2 0  5765
2 38945 049.9605 090.3939 0991985 311.7453 040.2632 13.75952094 42875
0 BREEZE-M DEB
1 38945U 12044CE  13284.51664481  .00748868  72729-4  76735-2 0  5777
2 38945 049.9600 088.0878 0988927 313.6554 038.6336 13.76660089 42953
0 BREEZE-M DEB
1 38945U 12044CE  13285.45996522  .00702218  64804-4  71566-2 0  5798
2 38945 049.9593 084.3376 0983754 316.7604 035.9981 13.77880161 43086
0 BREEZE-M DEB
1 38945U 12044CE  13285.89506636  .00726046  69036-4  73723-2 0  5805
2 38945 049.9588 082.6056 0981394 318.1924 034.7871 13.78452692 43142
0 BREEZE-M DEB
1 38945U 12044CE  13286.47491570  .00686763  62464-4  69568-2 0  5812
2 38945 049.9583 080.2942 0978165 320.1068 033.1730 13.79200167 43224
0 BREEZE-M DEB
1 38945U 12044CE  13286.76472131  .00724599  69017-4  73238-2 0  5827
2 38945 049.9582 079.1382 0976576 321.0655 032.3663 13.79580806 43265
0 BREEZE-M DEB
1 38945U 12044CE  13287.77839569  .00883302  10071-3  88697-2 0  5830
2 38945 049.9572 075.0898 0970201 324.4060 029.5686 13.81074758 43403
0 BREEZE-M DEB
1 38945U 12044CE  13287.85075692  .00976642  12236-3  97977-2 0  5845
2 38945 049.9571 074.8006 0969589 324.6578 029.3590 13.81221614 43411
0 BREEZE-M DEB
1 38945U 12044CE  13288.57395941  .00887444  10207-3  88461-2 0  5853
2 38945 049.9567 071.9045 0963836 327.0509 027.3686 13.82584110 43516
0 BREEZE-M DEB
1 38945U 12044CE  13288.79078632  .00895863  10405-3  89163-2 0  5867
2 38945 049.9566 071.0351 0962364 327.7716 026.7686 13.82930649 43546
0 BREEZE-M DEB
1 38945U 12044CE  13289.44092938  .00921374  11019-3  91287-2 0  5875
2 38945 049.9559 068.4253 0957698 329.9239 024.9803 13.84024191 43636
0 BREEZE-M DEB
1 38945U 12044CE  13290.37913214  .00958592  11952-3  94283-2 0  5886
2 38945 049.9555 064.6525 0951257 333.0556 022.3817 13.85549648 43766
0 BREEZE-M DEB
1 38945U 12044CE  13290.52339084  .00731848  00000-0  75179-2 0  5896
2 38945 049.9564 064.0746 0946442 333.5318 022.0225 13.85885149 43787
0 BREEZE-M DEB
1 38945U 12044CE  13290.59549094  .00967898  12193-3  94913-2 0  5899
2 38945 049.9556 063.7815 0949684 333.7798 021.7819 13.85940437 43794
0 BREEZE-M DEB
1 38945U 12044CE  13291.38825874  .00923471  11179-3  90062-2 0  5905
2 38945 049.9548 060.5833 0943555 336.4284 019.5916 13.87371705 43905
0 BREEZE-M DEB
1 38945U 12044CE  13291.53231238  .00941527  11615-3  91855-2 0  5916
2 38945 049.9548 060.0004 0942318 336.9103 019.1938 13.87638321 43923
0 BREEZE-M DEB
1 38945U 12044CE  13291.89233939  .00864513  98742-4  84078-2 0  5921
2 38945 049.9546 058.5454 0939801 338.1111 018.2006 13.88240834 43978
0 BREEZE-M DEB
1 38945U 12044CE  13292.46802166  .00945663  11772-3  91445-2 0  5939
2 38945 049.9537 056.2166 0935622 340.0394 016.6067 13.89244322 44051
0 BREEZE-M DEB
1 38945U 12044CE  13292.61188083  .00953827  11980-3  92022-2 0  5946
2 38945 049.9536 055.6341 0934434 340.5199 016.2102 13.89540141 44072
0 BREEZE-M DEB
1 38945U 12044CE  13293.33077062  .00968706  12393-3  93150-2 0  5955
2 38945 049.9527 052.7184 0929002 342.9352 014.2151 13.90784816 44171
0 BREEZE-M DEB
1 38945U 12044CE  13293.76178843  .00980193  12711-3  93844-2 0  5960
2 38945 049.9525 050.9679 0925813 344.3914 013.0120 13.91551952 44238
0 BREEZE-M DEB
1 38945U 12044CE  13294.55135374  .01055587  14762-3  10050-1 0  5977
2 38945 049.9511 047.7549 0919622 347.0504 010.8154 13.92997428 44346
0 BREEZE-M DEB
1 38945U 12044CE  13295.34010009  .01085911  15684-3  10274-1 0  5989
2 38945 049.9502 044.5384 0913189 349.7115 008.6158 13.94507571 44456
0 BREEZE-M DEB
1 38945U 12044CE  13295.55506873  .01034776  14276-3  97620-2 0  5992
2 38945 049.9499 043.6608 0911922 350.4459 008.0074 13.94830287 44480
0 BREEZE-M DEB
1 38945U 12044CE  13296.12801485  .01059632  15011-3  99284-2 0  6000
2 38945 049.9495 041.3192 0907221 352.3714 006.4137 13.95967613 44567
